[
    {
        "CCSDS_OMM_VERS": "3.0",
        "COMMENT": "GENERATED VIA SPACE-TRACK.ORG API",
        "CREATION_DATE": "2025-04-12T22:09:39",
        "ORIGINATOR": "18 SPCS",
        "OBJECT_NAME": "COSMOS 2475 (GLONASS)",
        "OBJECT_ID": "2011-064C",
        "CENTER_NAME": "EARTH",
        "REF_FRAME": "TEME",
        "TIME_SYSTEM": "UTC",
        "MEAN_ELEMENT_THEORY": "SGP4",
        "EPOCH": "2025-04-12T11:30:45.786240",
        "MEAN_MOTION": "2.13101836",
        "ECCENTRICITY": "0.00272340",
        "INCLINATION": "65.0450",
        "RA_OF_ASC_NODE": "87.5312",
        "ARG_OF_PERICENTER": "256.1638",
        "MEAN_ANOMALY": "101.1371",
        "EPHEMERIS_TYPE": "0",
        "CLASSIFICATION_TYPE": "U",
        "NORAD_CAT_ID": "37869",
        "ELEMENT_SET_NO": "999",
        "REV_AT_EPOCH": "10458",
        "BSTAR": "0.00000000000000",
        "MEAN_MOTION_DOT": "0.00000024",
        "MEAN_MOTION_DDOT": "0.0000000000000",
        "SEMIMAJOR_AXIS": "25508.038",
        "PERIOD": "675.733",
        "APOAPSIS": "19199.371",
        "PERIAPSIS": "19060.434",
        "OBJECT_TYPE": "PAYLOAD",
        "RCS_SIZE": "LARGE",
        "COUNTRY_CODE": "CIS",
        "LAUNCH_DATE": "2011-11-04",
        "SITE": "TTMTR",
        "DECAY_DATE": null,
        "FILE": "4699941",
        "GP_ID": "285444031",
        "TLE_LINE0": "0 COSMOS 2475 (GLONASS)",
        "TLE_LINE1": "1 37869U 11064C   25102.47969660  .00000024  00000-0  00000-0 0  9998",
        "TLE_LINE2": "2 37869  65.0450  87.5312 0027234 256.1638 101.1371  2.13101836104587"
    }
]